IRIDIUM 112             
1 41925U 17003J   24364.56715546  .00000495  00000+0  16952-3 0  9993
2 41925  86.3968 311.7081 0002358  78.5321 281.6140 14.34217552416645
IRIDIUM 111             
1 41926U 17003K   24364.90331266  .00000567  00000+0  19533-3 0  9993
2 41926  86.3973 311.6265 0002104  84.0794 276.0642 14.34218377416674
IRIDIUM 113             
1 42803U 17039A   24364.74373894  .00000031  00000+0  41747-5 0  9992
2 42803  86.3995 185.5028 0002097  76.3867 283.7562 14.34218083394589
IRIDIUM 123             
1 42804U 17039B   24364.85498465  .00000405  00000+0  13761-3 0  9995
2 42804  86.3977 216.8943 0001773  88.6294 271.5105 14.34216809393361
IRIDIUM 120             
1 42805U 17039C   24364.80716532  .00000247  00000+0  80965-4 0  9994
2 42805  86.3983 185.3284 0001930  99.5476 260.5938 14.34220089394587
IRIDIUM 115             
1 42806U 17039D   24364.85511612  .00000398  00000+0  11218-3 0  9993
2 42806  86.4521 185.3620 0001566  87.8973 272.2407 14.43285422397191
IRIDIUM 118             
1 42807U 17039E   24364.74716225  .00000128  00000+0  38582-4 0  9994
2 42807  86.3977 216.9398 0002047  86.5035 273.6395 14.34216379393348
IRIDIUM 117             
1 42808U 17039F   24364.83595768 -.00000060  00000+0 -28625-4 0  9996
2 42808  86.3979 216.8653 0001504  89.6320 270.5048 14.34216645393383
